ISS OBJECT XW           
1 66910U 98067XW  26063.60575175  .00152805  00000+0  13842-2 0  9995
2 66910  51.6244  91.4429 0004962  57.7453 302.4024 15.67030615 14382
ISS OBJECT XX           
1 66911U 98067XX  26063.37318506  .00277959  00000+0  19668-2 0  9993
2 66911  51.6212  91.3792 0007057  50.5445 309.6177 15.72573007 14358
ISS OBJECT XY           
1 66912U 98067XY  26063.33915681  .00115523  00000+0  12563-2 0  9992
2 66912  51.6267  94.1780 0002913  59.3455 300.7826 15.62578178 14313
ISS OBJECT XZ           
1 67683U 98067XZ  26063.31738248  .00052289  00000+0  87421-3 0  9993
2 67683  51.6304  98.5346 0009491 167.7937 192.3284 15.51337660  3952
GXIBA-1                 
1 67684U 98067YA  26063.36223978  .00103687  00000+0  15928-2 0  9999
2 67684  51.6304  98.0837 0010966 158.3351 201.8106 15.53373762  3963
CORAL                   
1 67685U 98067YB  26063.31409248  .00057704  00000+0  95212-3 0  9994
2 67685  51.6305  98.5128 0011398 164.0725 196.0625 15.51642058  3957
ISS OBJECT YC           
1 67686U 98067YC  26063.31023201  .00070087  00000+0  11372-2 0  9999
2 67686  51.6308  98.4887 0007744 132.0357 228.1293 15.52065011  3955
LEOPARD                 
1 67687U 98067YD  26063.31561112  .00056781  00000+0  94368-3 0  9990
2 67687  51.6306  98.5236 0007781 136.2386 223.9221 15.51484974  3879
ISS OBJECT YE           
1 67688U 98067YE  26063.50513603  .00064836  00000+0  10599-2 0  9997
2 67688  51.6315  97.5383 0007786 134.7310 225.4314 15.51890022  3906
CREW DRAGON 12          
1 67796U 26031A   26063.54402654  .00009464  00000+0  18311-3 0  9993
2 67796  51.6315  97.7962 0008198 156.3781 203.7585 15.48441338555472
